OBJECT B                
1 51825U 22019B   25210.86569212  .00020473  00000+0  47762-3 0  9998
2 51825  97.3826 288.0628 0009105 219.1720 140.8869 15.42212918189648
